[{"OBJECT_NAME":"STARLINK-35393","OBJECT_ID":"2025-221E","EPOCH":"2025-10-26T11:26:52.449216","MEAN_MOTION":15.49353735,"ECCENTRICITY":0.00010195,"INCLINATION":53.1598,"RA_OF_ASC_NODE":353.2537,"ARG_OF_PERICENTER":118.6924,"MEAN_ANOMALY":241.4188,"EPHEMERIS_TYPE":0,"CLASSIFICATION_TYPE":"U","NORAD_CAT_ID":65827,"ELEMENT_SET_NO":999,"REV_AT_EPOCH":551,"BSTAR":0.0015749621,"MEAN_MOTION_DOT":0.00088279,"MEAN_MOTION_DDOT":0},{"OBJECT_NAME":"STARLINK-35396","OBJECT_ID":"2025-221F","EPOCH":"2025-10-26T20:48:11.144160","MEAN_MOTION":15.49348171,"ECCENTRICITY":0.00016059,"INCLINATION":53.1597,"RA_OF_ASC_NODE":351.4233,"ARG_OF_PERICENTER":78.1987,"MEAN_ANOMALY":281.9202,"EPHEMERIS_TYPE":0,"CLASSIFICATION_TYPE":"U","NORAD_CAT_ID":65828,"ELEMENT_SET_NO":999,"REV_AT_EPOCH":557,"BSTAR":0.0022733275,"MEAN_MOTION_DOT":0.00128258,"MEAN_MOTION_DDOT":0},{"OBJECT_NAME":"STARLINK-35244","OBJECT_ID":"2025-221G","EPOCH":"2025-10-26T20:59:42.763200","MEAN_MOTION":15.39635821,"ECCENTRICITY":0.00017119,"INCLINATION":53.1603,"RA_OF_ASC_NODE":352.9296,"ARG_OF_PERICENTER":68.1433,"MEAN_ANOMALY":291.9754,"EPHEMERIS_TYPE":0,"CLASSIFICATION_TYPE":"U","NORAD_CAT_ID":65829,"ELEMENT_SET_NO":999,"REV_AT_EPOCH":551,"BSTAR":0.0014031406,"MEAN_MOTION_DOT":0.00056169,"MEAN_MOTION_DDOT":0},{"OBJECT_NAME":"STARLINK-35368","OBJECT_ID":"2025-221H","EPOCH":"2025-10-26T11:29:20.825664","MEAN_MOTION":15.49321702,"ECCENTRICITY":9.595e-5,"INCLINATION":53.1597,"RA_OF_ASC_NODE":353.2653,"ARG_OF_PERICENTER":73.0608,"MEAN_ANOMALY":287.0506,"EPHEMERIS_TYPE":0,"CLASSIFICATION_TYPE":"U","NORAD_CAT_ID":65830,"ELEMENT_SET_NO":999,"REV_AT_EPOCH":547,"BSTAR":0.0014597624,"MEAN_MOTION_DOT":0.00081627,"MEAN_MOTION_DDOT":0},{"OBJECT_NAME":"STARLINK-35337","OBJECT_ID":"2025-221J","EPOCH":"2025-10-26T20:47:41.394048","MEAN_MOTION":15.49354427,"ECCENTRICITY":0.00016333,"INCLINATION":53.1595,"RA_OF_ASC_NODE":351.4209,"ARG_OF_PERICENTER":80.2755,"MEAN_ANOMALY":279.8438,"EPHEMERIS_TYPE":0,"CLASSIFICATION_TYPE":"U","NORAD_CAT_ID":65831,"ELEMENT_SET_NO":999,"REV_AT_EPOCH":557,"BSTAR":0.0022682898,"MEAN_MOTION_DOT":0.00127997,"MEAN_MOTION_DDOT":0},{"OBJECT_NAME":"STARLINK-35277","OBJECT_ID":"2025-221K","EPOCH":"2025-10-26T20:47:11.806368","MEAN_MOTION":15.49356107,"ECCENTRICITY":0.00016803,"INCLINATION":53.1597,"RA_OF_ASC_NODE":351.4187,"ARG_OF_PERICENTER":82.5232,"MEAN_ANOMALY":277.5968,"EPHEMERIS_TYPE":0,"CLASSIFICATION_TYPE":"U","NORAD_CAT_ID":65832,"ELEMENT_SET_NO":999,"REV_AT_EPOCH":557,"BSTAR":0.0023538734,"MEAN_MOTION_DOT":0.00132936,"MEAN_MOTION_DDOT":0},{"OBJECT_NAME":"STARLINK-35345","OBJECT_ID":"2025-221L","EPOCH":"2025-10-26T11:28:51.016800","MEAN_MOTION":15.49339356,"ECCENTRICITY":9.015e-5,"INCLINATION":53.1598,"RA_OF_ASC_NODE":353.2627,"ARG_OF_PERICENTER":95.0219,"MEAN_ANOMALY":265.0893,"EPHEMERIS_TYPE":0,"CLASSIFICATION_TYPE":"U","NORAD_CAT_ID":65833,"ELEMENT_SET_NO":999,"REV_AT_EPOCH":551,"BSTAR":0.001388497,"MEAN_MOTION_DOT":0.00077628,"MEAN_MOTION_DDOT":0},{"OBJECT_NAME":"STARLINK-35320","OBJECT_ID":"2025-221M","EPOCH":"2025-10-26T13:00:45.528768","MEAN_MOTION":15.49329572,"ECCENTRICITY":0.00013758,"INCLINATION":53.1596,"RA_OF_ASC_NODE":352.9507,"ARG_OF_PERICENTER":75.9637,"MEAN_ANOMALY":284.1525,"EPHEMERIS_TYPE":0,"CLASSIFICATION_TYPE":"U","NORAD_CAT_ID":65834,"ELEMENT_SET_NO":999,"REV_AT_EPOCH":417,"BSTAR":0.0014266538,"MEAN_MOTION_DOT":0.00079769,"MEAN_MOTION_DDOT":0},{"OBJECT_NAME":"STARLINK-35349","OBJECT_ID":"2025-221N","EPOCH":"2025-10-26T13:01:15.348000","MEAN_MOTION":15.49319825,"ECCENTRICITY":0.00020818,"INCLINATION":53.1597,"RA_OF_ASC_NODE":352.9518,"ARG_OF_PERICENTER":68.0978,"MEAN_ANOMALY":292.0252,"EPHEMERIS_TYPE":0,"CLASSIFICATION_TYPE":"U","NORAD_CAT_ID":65835,"ELEMENT_SET_NO":999,"REV_AT_EPOCH":417,"BSTAR":0.0013720457,"MEAN_MOTION_DOT":0.00076643,"MEAN_MOTION_DDOT":0},{"OBJECT_NAME":"STARLINK-35356","OBJECT_ID":"2025-221P","EPOCH":"2025-10-26T13:00:15.977376","MEAN_MOTION":15.49320614,"ECCENTRICITY":0.00018212,"INCLINATION":53.1597,"RA_OF_ASC_NODE":352.9468,"ARG_OF_PERICENTER":61.4351,"MEAN_ANOMALY":298.6841,"EPHEMERIS_TYPE":0,"CLASSIFICATION_TYPE":"U","NORAD_CAT_ID":65836,"ELEMENT_SET_NO":999,"REV_AT_EPOCH":417,"BSTAR":0.0015118737,"MEAN_MOTION_DOT":0.00084587,"MEAN_MOTION_DDOT":0},{"OBJECT_NAME":"STARLINK-35314","OBJECT_ID":"2025-221Q","EPOCH":"2025-10-26T12:58:46.943904","MEAN_MOTION":15.49313639,"ECCENTRICITY":0.00019931,"INCLINATION":53.1597,"RA_OF_ASC_NODE":352.9412,"ARG_OF_PERICENTER":55.7031,"MEAN_ANOMALY":304.4167,"EPHEMERIS_TYPE":0,"CLASSIFICATION_TYPE":"U","NORAD_CAT_ID":65837,"ELEMENT_SET_NO":999,"REV_AT_EPOCH":417,"BSTAR":0.00076597425,"MEAN_MOTION_DOT":0.00042391,"MEAN_MOTION_DDOT":0},{"OBJECT_NAME":"STARLINK-35324","OBJECT_ID":"2025-221R","EPOCH":"2025-10-26T12:59:16.646496","MEAN_MOTION":15.49319967,"ECCENTRICITY":0.00020264,"INCLINATION":53.1597,"RA_OF_ASC_NODE":352.9432,"ARG_OF_PERICENTER":54.5054,"MEAN_ANOMALY":305.6144,"EPHEMERIS_TYPE":0,"CLASSIFICATION_TYPE":"U","NORAD_CAT_ID":65838,"ELEMENT_SET_NO":999,"REV_AT_EPOCH":417,"BSTAR":0.0012297809,"MEAN_MOTION_DOT":0.00068578,"MEAN_MOTION_DDOT":0},{"OBJECT_NAME":"STARLINK-35102","OBJECT_ID":"2025-221S","EPOCH":"2025-10-26T20:42:44.604864","MEAN_MOTION":15.49349655,"ECCENTRICITY":0.00013782,"INCLINATION":53.1594,"RA_OF_ASC_NODE":351.3959,"ARG_OF_PERICENTER":86.3659,"MEAN_ANOMALY":273.7508,"EPHEMERIS_TYPE":0,"CLASSIFICATION_TYPE":"U","NORAD_CAT_ID":65839,"ELEMENT_SET_NO":999,"REV_AT_EPOCH":422,"BSTAR":0.0023495966,"MEAN_MOTION_DOT":0.00132658,"MEAN_MOTION_DDOT":0},{"OBJECT_NAME":"STARLINK-35364","OBJECT_ID":"2025-221T","EPOCH":"2025-10-26T12:57:47.480832","MEAN_MOTION":15.49326686,"ECCENTRICITY":0.00015604,"INCLINATION":53.1598,"RA_OF_ASC_NODE":352.9356,"ARG_OF_PERICENTER":60.463,"MEAN_ANOMALY":299.6535,"EPHEMERIS_TYPE":0,"CLASSIFICATION_TYPE":"U","NORAD_CAT_ID":65840,"ELEMENT_SET_NO":999,"REV_AT_EPOCH":417,"BSTAR":0.0015145684,"MEAN_MOTION_DOT":0.00084758,"MEAN_MOTION_DDOT":0},{"OBJECT_NAME":"STARLINK-35238","OBJECT_ID":"2025-221U","EPOCH":"2025-10-26T12:56:47.336928","MEAN_MOTION":15.49361151,"ECCENTRICITY":9.76e-5,"INCLINATION":53.1595,"RA_OF_ASC_NODE":352.9308,"ARG_OF_PERICENTER":236.9946,"MEAN_ANOMALY":123.097,"EPHEMERIS_TYPE":0,"CLASSIFICATION_TYPE":"U","NORAD_CAT_ID":65841,"ELEMENT_SET_NO":999,"REV_AT_EPOCH":417,"BSTAR":0.001579722,"MEAN_MOTION_DOT":0.00088574,"MEAN_MOTION_DDOT":0},{"OBJECT_NAME":"STARLINK-35298","OBJECT_ID":"2025-221V","EPOCH":"2025-10-26T12:57:17.777376","MEAN_MOTION":15.49329133,"ECCENTRICITY":0.00013007,"INCLINATION":53.1596,"RA_OF_ASC_NODE":352.9337,"ARG_OF_PERICENTER":67.1296,"MEAN_ANOMALY":292.985,"EPHEMERIS_TYPE":0,"CLASSIFICATION_TYPE":"U","NORAD_CAT_ID":65842,"ELEMENT_SET_NO":999,"REV_AT_EPOCH":417,"BSTAR":0.0018299734,"MEAN_MOTION_DOT":0.00102749,"MEAN_MOTION_DDOT":0}]
