STARLINK-35393          
1 65827U 25221E   25299.47699594  .00088279  00000+0  15750-2 0  9993
2 65827  53.1598 353.2537 0001019 118.6924 241.4188 15.49353735  5515
STARLINK-35396          
1 65828U 25221F   25299.86679565  .00128258  00000+0  22733-2 0  9994
2 65828  53.1597 351.4233 0001605  78.1987 281.9202 15.49348171  5578
STARLINK-35244          
1 65829U 25221G   25299.87480050  .00056169  00000+0  14031-2 0  9998
2 65829  53.1603 352.9296 0001711  68.1433 291.9754 15.39635821  5512
STARLINK-35368          
1 65830U 25221H   25299.47871326  .00081627  00000+0  14598-2 0  9991
2 65830  53.1597 353.2653 0000959  73.0608 287.0506 15.49321702  5476
STARLINK-35337          
1 65831U 25221J   25299.86645132  .00127997  00000+0  22683-2 0  9994
2 65831  53.1595 351.4209 0001633  80.2755 279.8438 15.49354427  5579
STARLINK-35277          
1 65832U 25221K   25299.86610887  .00132936  00000+0  23539-2 0  9994
2 65832  53.1597 351.4187 0001680  82.5232 277.5968 15.49356107  5574
STARLINK-35345          
1 65833U 25221L   25299.47836825  .00077628  00000+0  13885-2 0  9993
2 65833  53.1598 353.2627 0000901  95.0219 265.0893 15.49339356  5514
STARLINK-35320          
1 65834U 25221M   25299.54219362  .00079769  00000+0  14267-2 0  9996
2 65834  53.1596 352.9507 0001375  75.9637 284.1525 15.49329572  4177
STARLINK-35349          
1 65835U 25221N   25299.54253875  .00076643  00000+0  13720-2 0  9995
2 65835  53.1597 352.9518 0002081  68.0978 292.0252 15.49319825  4172
STARLINK-35356          
1 65836U 25221P   25299.54185159  .00084587  00000+0  15119-2 0  9995
2 65836  53.1597 352.9468 0001821  61.4351 298.6841 15.49320614  4174
STARLINK-35314          
1 65837U 25221Q   25299.54082111  .00042391  00000+0  76597-3 0  9995
2 65837  53.1597 352.9412 0001993  55.7031 304.4167 15.49313639  4171
STARLINK-35324          
1 65838U 25221R   25299.54116489  .00068578  00000+0  12298-2 0  9994
2 65838  53.1597 352.9432 0002026  54.5054 305.6144 15.49319967  4172
STARLINK-35102          
1 65839U 25221S   25299.86301626  .00132658  00000+0  23496-2 0  9992
2 65839  53.1594 351.3959 0001378  86.3659 273.7508 15.49349655  4222
STARLINK-35364          
1 65840U 25221T   25299.54013288  .00084758  00000+0  15146-2 0  9993
2 65840  53.1598 352.9356 0001560  60.4630 299.6535 15.49326686  4171
STARLINK-35238          
1 65841U 25221U   25299.53943677  .00088574  00000+0  15797-2 0  9999
2 65841  53.1595 352.9308 0000976 236.9946 123.0970 15.49361151  4175
STARLINK-35298          
1 65842U 25221V   25299.53978909  .00102749  00000+0  18300-2 0  9990
2 65842  53.1596 352.9337 0001300  67.1296 292.9850 15.49329133  4170
